[{"OBJECT_NAME":"STARLINK-1775","OBJECT_ID":"2020-073M","EPOCH":"2026-03-10T00:00:02.999808","MEAN_MOTION":15.77531204,"ECCENTRICITY":7.989e-5,"INCLINATION":53.0433,"RA_OF_ASC_NODE":208.9003,"ARG_OF_PERICENTER":71.2079,"MEAN_ANOMALY":262.2455,"EPHEMERIS_TYPE":0,"CLASSIFICATION_TYPE":"U","NORAD_CAT_ID":46681,"ELEMENT_SET_NO":999,"REV_AT_EPOCH":597,"BSTAR":0.00064069936,"MEAN_MOTION_DOT":0.00109421,"MEAN_MOTION_DDOT":0},{"OBJECT_NAME":"STARLINK-36354","OBJECT_ID":"2026-032D","EPOCH":"2026-03-09T22:26:20.372928","MEAN_MOTION":15.75273286,"ECCENTRICITY":0.00012913,"INCLINATION":97.2852,"RA_OF_ASC_NODE":255.4613,"ARG_OF_PERICENTER":78.6798,"MEAN_ANOMALY":281.4613,"EPHEMERIS_TYPE":0,"CLASSIFICATION_TYPE":"U","NORAD_CAT_ID":67800,"ELEMENT_SET_NO":999,"REV_AT_EPOCH":482,"BSTAR":0.0018536535,"MEAN_MOTION_DOT":0.0028688,"MEAN_MOTION_DDOT":0}]
